[{"OBJECT_NAME":"ONEWEB-0252","OBJECT_ID":"2021-060D","EPOCH":"2026-03-09T12:39:57.752064","MEAN_MOTION":13.16593895,"ECCENTRICITY":0.00014225,"INCLINATION":87.9003,"RA_OF_ASC_NODE":248.5932,"ARG_OF_PERICENTER":100.8906,"MEAN_ANOMALY":259.2386,"EPHEMERIS_TYPE":0,"CLASSIFICATION_TYPE":"U","NORAD_CAT_ID":48970,"ELEMENT_SET_NO":999,"REV_AT_EPOCH":22654,"BSTAR":-0.00024817125,"MEAN_MOTION_DOT":-8.2e-7,"MEAN_MOTION_DDOT":0},{"OBJECT_NAME":"SSU 3","OBJECT_ID":"1976-038J","EPOCH":"2026-03-09T18:07:10.473312","MEAN_MOTION":13.88009497,"ECCENTRICITY":0.03814612,"INCLINATION":63.3562,"RA_OF_ASC_NODE":86.2912,"ARG_OF_PERICENTER":181.5801,"MEAN_ANOMALY":178.4074,"EPHEMERIS_TYPE":0,"CLASSIFICATION_TYPE":"U","NORAD_CAT_ID":8884,"ELEMENT_SET_NO":999,"REV_AT_EPOCH":34830,"BSTAR":8.5542796e-5,"MEAN_MOTION_DOT":7.2e-7,"MEAN_MOTION_DDOT":0}]
